LEMUR-2-FURIAUS         
1 42840U 17042R   26068.96143223  .00025928  00000+0  99966-3 0  9991
2 42840  97.3753 248.4990 0007537  55.8686 304.3266 15.26272951473053
STARLINK-32514          
1 61965U 24210G   26068.31247905  .00032758  00000+0  11939-2 0  9998
2 61965  42.9967 174.9140 0000875 294.8592  65.2168 15.27598956 74939
